ONEWEB-0403             
1 50483U 21132Q   25036.50514867  .00000034  00000+0  54632-4 0  9991
2 50483  87.9055  74.2454 0001859  92.2071 267.9274 13.18689060156131
ONEWEB-0404             
1 50484U 21132R   25036.48693299 -.00000504  00000+0 -14584-2 0  9990
2 50484  87.8896 120.0808 0001508  96.1927 263.9372 13.11416482150599
ONEWEB-0405             
1 50485U 21132S   25036.52095495  .00000057  00000+0  11255-3 0  9994
2 50485  87.9054  74.2319 0001609 103.7094 256.4218 13.18685689156536
ONEWEB-0406             
1 50486U 21132T   25036.50987313  .00000076  00000+0  15905-3 0  9999
2 50486  87.9056  74.2511 0002044  78.2880 281.8482 13.18685952156163
ONEWEB-0407             
1 50487U 21132U   25036.50356521  .00000049  00000+0  92358-4 0  9999
2 50487  87.9053  74.2434 0001726  98.8413 261.2915 13.18686030156106
ONEWEB-0409             
1 50488U 21132V   25036.48522394 -.00000414  00000+0 -12047-2 0  9993
2 50488  87.8886 120.0574 0001801  94.7797 265.3537 13.11418686150482
ONEWEB-0412             
1 50489U 21132W   25036.49249928 -.00000025  00000+0 -95603-4 0  9993
2 50489  87.9057  74.2565 0001663 108.8945 251.2368 13.18685608156199
ONEWEB-0413             
1 50490U 21132X   25036.49724092  .00000065  00000+0  13111-3 0  9990
2 50490  87.9058  74.2677 0001821 107.5323 252.6008 13.18685541156134
